ONEWEB-0584             
1 54651U 22166K   24099.58074767  .00000014  00000+0  26231-5 0  9999
2 54651  87.9300  43.1210 0002201  72.4686 287.6689 13.21824449 65880
ONEWEB-0585             
1 54652U 22166L   24099.60597945  .00000015  00000+0  43308-5 0  9996
2 54652  87.9301  43.1230 0001724  75.9073 284.2253 13.21827089 65895
ONEWEB-0586             
1 54653U 22166M   24099.54289830  .00000065  00000+0  12529-3 0  9995
2 54653  87.9292  43.1548 0002048  73.7499 286.3861 13.21824276 65887
ONEWEB-0587             
1 54654U 22166N   24099.55236892  .00000074  00000+0  14773-3 0  9990
2 54654  87.9292  43.1094 0001764  87.8427 272.2909 13.21826081 66047
ONEWEB-0589             
1 54655U 22166P   24099.38835731  .00000031  00000+0  43516-4 0  9990
2 54655  87.9296  43.1702 0002793  67.1017 293.0412 13.21827263 65881
ONEWEB-0590             
1 54656U 22166Q   24099.56340230  .00000036  00000+0  54643-4 0  9994
2 54656  87.9301  43.1401 0002042  87.2083 272.9285 13.21824471 65891
ONEWEB-0591             
1 54657U 22166R   24099.57601844  .00000011  00000+0 -57855-5 0  9990
2 54657  87.9294  43.1368 0002070  77.7873 282.3493 13.21825612 65925
ONEWEB-0592             
1 54658U 22166S   24099.57918174  .00000000  00000+0 -30357-4 0  9993
2 54658  87.9292  43.1041 0002237  77.5061 282.6324 13.21825185 65802
ONEWEB-0593             
1 54659U 22166T   24099.60283162 -.00000011  00000+0 -57887-4 0  9990
2 54659  87.9297  43.1220 0002172  76.1600 283.9775 13.21827023 65918
ONEWEB-0594             
1 54660U 22166U   24099.54605209  .00000061  00000+0  11735-3 0  9999
2 54660  87.9299  43.1309 0001773  77.8088 282.3244 13.21824634 65924
ONEWEB-0595             
1 54661U 22166V   24099.59966878 -.00000047  00000+0 -14629-3 0  9998
2 54661  87.9298  43.1093 0001941  88.4102 271.7254 13.21824926 65901
ONEWEB-0596             
1 54662U 22166W   24099.57286131  .00000061  00000+0  11588-3 0  9999
2 54662  87.9297  43.1188 0002333  79.5737 280.5659 13.21824130 65901
ONEWEB-0597             
1 54663U 22166X   24099.55394011  .00000143  00000+0  31522-3 0  9996
2 54663  87.9301  43.1239 0002158  71.0743 289.0624 13.21827011 65901
ONEWEB-0600             
1 54664U 22166Y   24099.53659790  .00000051  00000+0  92358-4 0  9996
2 54664  87.9294  43.1717 0002006  73.0115 287.1238 13.21826217 65874
ONEWEB-0601             
1 54665U 22166Z   24099.60440787 -.00000008  00000+0 -50433-4 0  9991
2 54665  87.9303  43.1173 0002445  73.3675 286.7727 13.21826032 66079
ONEWEB-0602             
1 54666U 22166AA  24099.56970367  .00000100  00000+0  20982-3 0  9995
2 54666  87.9299  43.1288 0002141  72.2828 287.8539 13.21825299 65911
ONEWEB-0603             
1 54667U 22166AB  24099.34735816 -.00000013  00000+0 -62605-4 0  9994
2 54667  87.9304  43.1730 0002284  71.0510 289.0871 13.21826299 65817
ONEWEB-0604             
1 54668U 22166AC  24099.56182302  .00000070  00000+0  13774-3 0  9998
2 54668  87.9294  43.1151 0001739  71.3521 288.7802 13.21824536 65803
ONEWEB-0605             
1 54669U 22166AD  24099.55552343  .00000056  00000+0  10329-3 0  9991
2 54669  87.9293  43.1497 0002617  74.7646 285.3777 13.21825388 65874
ONEWEB-0606             
1 54670U 22166AE  24099.57758641 -.00000031  00000+0 -10636-3 0  9990
2 54670  87.9300  43.1317 0001822  85.1061 275.0280 13.21823541 65931
ONEWEB-0607             
1 54671U 22166AF  24099.54448201  .00000102  00000+0  21651-3 0  9992
2 54671  87.9296  43.1182 0002118  71.9627 288.1738 13.21824705 65909
ONEWEB-0608             
1 54672U 22166AG  24099.55078882  .00000133  00000+0  29137-3 0  9999
2 54672  87.9301  43.1344 0002525  71.2372 288.9036 13.21825258 65913
ONEWEB-0610             
1 54673U 22166AH  24099.60757257  .00000013  00000+0 -10596-5 0  9995
2 54673  87.9298  43.1216 0002384  73.3453 286.7943 13.21825602 65829
ONEWEB-0611             
1 54674U 22166AJ  24099.60125473 -.00000046  00000+0 -14322-3 0  9991
2 54674  87.9297  43.1222 0001550  86.1350 273.9961 13.21824691 65812
ONEWEB-0612             
1 54675U 22166AK  24099.53816958 -.00000013  00000+0 -62037-4 0  9990
2 54675  87.9294  43.1184 0002238  76.4648 283.6735 13.21824093 65793
ONEWEB-0615             
1 54676U 22166AL  24099.59494624 -.00000020  00000+0 -80198-4 0  9995
2 54676  87.9295  43.1316 0001973  71.6198 288.5150 13.21825758 65811
ONEWEB-0655             
1 54677U 22166AM  24099.56812532  .00000031  00000+0  43444-4 0  9998
2 54677  87.9295  43.1385 0001893  63.0334 297.0993 13.21828109 65808
ONEWEB-0659             
1 54678U 22166AN  24099.58547784 -.00000076  00000+0 -21550-3 0  9999
2 54678  87.9295  43.1428 0001914  87.6982 272.4371 13.21823915 65898
ONEWEB-0685             
1 54679U 22166AP  24099.58708069 -.00000059  00000+0 -17507-3 0  9993
2 54679  87.9297  43.1308 0002076  71.5578 288.5782 13.21827621 65781
ONEWEB-0712             
1 54680U 22166AQ  24099.52687566 -.00000013  00000+0 -67145-4 0  9991
2 54680  87.9141  27.9408 0001481  82.5015 277.6284 13.16592160 66833
ONEWEB-0714             
1 54681U 22166AR  24099.59335892 -.00000055  00000+0 -16408-3 0  9992
2 54681  87.9298  43.1147 0002028  71.0263 289.1091 13.21823684 65908
ONEWEB-0532             
1 55140U 23004A   24099.42486406  .00000094  00000+0  20796-3 0  9991
2 55140  87.9232 164.9989 0002892 101.9444 258.2012 13.17649630 62264
ONEWEB-0533             
1 55141U 23004B   24099.42519017  .00000333  00000+0  89090-3 0  9995
2 55141  87.8986 149.8396 0001983  93.1610 266.9745 13.12445577 63158
ONEWEB-0541             
1 55142U 23004C   24099.51720491  .00000536  00000+0  14764-2 0  9996
2 55142  87.9032 180.0908 0002109 101.5088 258.6277 13.11418628 61132
ONEWEB-0543             
1 55143U 23004D   24099.35004531  .00000106  00000+0  23689-3 0  9999
2 55143  87.9143 134.7697 0001639  92.7028 267.4292 13.18686133 64288
ONEWEB-0544             
1 55144U 23004E   24099.49548820  .00000040  00000+0  67873-4 0  9990
2 55144  87.9146 134.7251 0002077  99.6767 260.4600 13.18685920 64303
ONEWEB-0560             
1 55145U 23004F   24099.48916803  .00000044  00000+0  79997-4 0  9994
2 55145  87.9153 134.6732 0001715 105.1436 254.9886 13.18686505 64314
ONEWEB-0565             
1 55146U 23004G   24099.33109319  .00000015  00000+0  48741-5 0  9997
2 55146  87.9148 134.7861 0002340 112.9179 247.2200 13.18686963 64287
ONEWEB-0567             
1 55147U 23004H   24099.32475849  .00000086  00000+0  18641-3 0  9993
2 55147  87.9151 134.7405 0001950 112.7140 247.4199 13.18684957 64288
ONEWEB-0569             
1 55148U 23004J   24099.44714700  .00000021  00000+0  21733-4 0  9995
2 55148  87.8901 119.4028 0001790 128.2045 231.9245 13.13470684 65196
ONEWEB-0570             
1 55149U 23004K   24099.38799136  .00000014  00000+0  16459-5 0  9997
2 55149  87.9152 134.7234 0002711  98.7363 261.4076 13.18686974 64288
ONEWEB-0571             
1 55150U 23004L   24099.38166111 -.00000004  00000+0 -42152-4 0  9999
2 55150  87.9152 134.7297 0002568 121.0542 239.0843 13.18683858 64290
ONEWEB-0572             
1 55151U 23004M   24099.45648428  .00000023  00000+0  26223-4 0  9994
2 55151  87.9231 165.0004 0002332 104.0706 256.0685 13.17650730 62163
ONEWEB-0573             
1 55152U 23004N   24099.37534236  .00000057  00000+0  11252-3 0  9999
2 55152  87.9147 134.7552 0002758 114.2768 245.8652 13.18684598 64289
ONEWEB-0588             
1 55153U 23004P   24099.36902934  .00000087  00000+0  18773-3 0  9991
2 55153  87.9151 134.7196 0002747  98.1758 261.9686 13.18685135 64280
ONEWEB-0598             
1 55154U 23004Q   24099.49284494 -.00000251  00000+0 -74492-3 0  9995
2 55154  87.9030 180.1349 0002296 123.9532 236.1814 13.11418999 61085
ONEWEB-0599             
1 55155U 23004R   24099.41693248  .00000054  00000+0  10494-3 0  9990
2 55155  87.9239 164.9878 0001989 105.3160 254.8191 13.17648526 62165
ONEWEB-0614             
1 55156U 23004S   24099.48796198 -.00000392  00000+0 -11419-2 0  9990
2 55156  87.9032 180.1387 0002309  94.7261 265.4130 13.11416474 61026
ONEWEB-0616             
1 55157U 23004T   24099.45965675  .00000008  00000+0 -12963-4 0  9996
2 55157  87.9232 164.9909 0000826  98.1794 261.9431 13.17649044 62382
ONEWEB-0617             
1 55158U 23004U   24099.47660558 -.00000435  00000+0 -12641-2 0  9997
2 55158  87.9029 180.1393 0002514 100.8460 259.2951 13.11417301 61043
ONEWEB-0618             
1 55159U 23004V   24099.46944654  .00000185  00000+0  68343-4 0  9991
2 55159  86.9031 118.0718 0014775 142.5955 217.6269 14.26784036 65404
ONEWEB-0619             
1 55160U 23004W   24099.41536113  .00000042  00000+0  74798-4 0  9998
2 55160  87.9234 164.9759 0001679  85.7112 274.4211 13.17650613 62271
ONEWEB-0620             
1 55161U 23004X   24099.47173465 -.00000346  00000+0 -10127-2 0  9995
2 55161  87.9031 180.1485 0002545 106.6090 253.5317 13.11414283 61015
ONEWEB-0621             
1 55162U 23004Y   24099.49770467  .00000021  00000+0  22492-4 0  9991
2 55162  87.9028 180.1143 0002089  90.5234 269.6133 13.11420940 60994
ONEWEB-0622             
1 55163U 23004Z   24099.50421480  .00000218  00000+0  57805-3 0  9995
2 55163  87.9029 180.1282 0002979  97.2321 262.9146 13.11419814 60986
ONEWEB-0623             
1 55164U 23004AA  24099.41061969  .00000095  00000+0  21046-3 0  9999
2 55164  87.9235 165.0303 0002819  90.5707 269.5748 13.17648096 62265
ONEWEB-0624             
1 55165U 23004AB  24099.39197080 -.00000270  00000+0 -78705-3 0  9992
2 55165  87.8985 149.8541 0002229  93.1974 266.9410 13.12440795 63147
ONEWEB-0625             
1 55166U 23004AC  24099.47547938  .00000095  00000+0  21159-3 0  9997
2 55166  87.9233 165.0163 0001833  91.9347 268.1994 13.17649168 62268
ONEWEB-0626             
1 55167U 23004AD  24099.46597970 -.00000062  00000+0 -19272-3 0  9997
2 55167  87.9231 165.0194 0002669 114.0217 246.1194 13.17650601 62264
